IXPE                    
1 49954U 21121A   24093.25002315  .00006830  00000+0  50696-3 0  9999
2 49954   0.2297 237.0672 0009502 234.5223   9.5131 14.97116321126493
